[
    {
        "Altitude(m)": 607895.8539582657,
        "Argument of Periapsis(deg)": 0.0,
        "Eccentricity": 0.0,
        "Inclination(deg)": 60.0,
        "Latitude(deg)": 40.998438656587375,
        "Longitude(deg)": 125.08869304876103,
        "Mean Anomaly(deg)": 130.9091,
        "RAAN(deg)": 75.0,
        "Satellite Name": "Test1 338",
        "Satellite Number": 338,
        "Semi-Major Axis(m)": 6980739.136638005,
        "Time(s)": 0
    },
    {
        "Altitude(m)": 607795.1665350017,
        "Argument of Periapsis(deg)": 0.00010418945913296404,
        "Eccentricity": 0.0,
        "Inclination(deg)": 60.0,
        "Latitude(deg)": 40.53076244489037,
        "Longitude(deg)": 125.58528683402703,
        "Mean Anomaly(deg)": 131.5292061454618,
        "RAAN(deg)": 74.99957995086027,
        "Satellite Name": "Test1 338",
        "Satellite Number": 338,
        "Semi-Major Axis(m)": 6980739.136638005,
        "Time(s)": 10
    }
]